[{"OBJECT_NAME":"HAIYANG 4-01","OBJECT_ID":"2024-208A","EPOCH":"2026-03-09T23:12:53.957952","MEAN_MOTION":14.73328674,"ECCENTRICITY":0.00022294,"INCLINATION":98.0072,"RA_OF_ASC_NODE":78.0681,"ARG_OF_PERICENTER":108.1992,"MEAN_ANOMALY":251.9459,"EPHEMERIS_TYPE":0,"CLASSIFICATION_TYPE":"U","NORAD_CAT_ID":61936,"ELEMENT_SET_NO":999,"REV_AT_EPOCH":7083,"BSTAR":0.00012921781,"MEAN_MOTION_DOT":7.86e-6,"MEAN_MOTION_DDOT":0},{"OBJECT_NAME":"CZ-6A DEB","OBJECT_ID":"2022-151WZ","EPOCH":"2026-03-09T03:29:53.048832","MEAN_MOTION":14.7155064,"ECCENTRICITY":0.00816058,"INCLINATION":98.6279,"RA_OF_ASC_NODE":137.1567,"ARG_OF_PERICENTER":198.417,"MEAN_ANOMALY":161.4077,"EPHEMERIS_TYPE":0,"CLASSIFICATION_TYPE":"U","NORAD_CAT_ID":55232,"ELEMENT_SET_NO":999,"REV_AT_EPOCH":17064,"BSTAR":0.0030438598,"MEAN_MOTION_DOT":0.00019914,"MEAN_MOTION_DDOT":0}]
